{
  "type": "FeatureCollection",
  "features": [
    {
      "type": "Feature",
      "properties": {
        "norad_id": 40796,
        "name": "COSMOS 2251 DEB",
        "group": "cosmos-2251-debris",
        "lat": 42.263682329750715,
        "lon": 134.37852157824884,
        "alt_km": 653.8229483870491,
        "timestamp": "2025-12-24T07:45:06.597237+00:00",
        "meta_object_name": "COSMOS 2251 DEB",
        "meta_object_id": "1993-036BVZ",
        "meta_epoch": "2025-12-23T01:18:22.154112",
        "meta_mean_motion": 14.81840162,
        "meta_eccentricity": 0.00560474,
        "meta_inclination": 74.0134,
        "meta_ra_of_asc_node": 121.7854,
        "meta_arg_of_pericenter": 256.6332,
        "meta_mean_anomaly": 222.9652,
        "meta_ephemeris_type": 0,
        "meta_classification_type": "U",
        "meta_norad_cat_id": 40796,
        "meta_element_set_no": 999,
        "meta_rev_at_epoch": 76311,
        "meta_bstar": 0.0010772974,
        "meta_mean_motion_dot": 8.725e-05,
        "meta_mean_motion_ddot": 0,
        "tle_line1": "1 40796U 93036BVZ 25357.05442308  .00008725  00000+0  10773-2 0  9996",
        "tle_line2": "2 40796  74.0134 121.7854 0056047 256.6332 222.9652 14.81840162763115"
      },
      "geometry": {
        "type": "Point",
        "coordinates": [
          134.37852157824884,
          42.263682329750715
        ]
      }
    },
    {
      "type": "Feature",
      "properties": {
        "norad_id": 40797,
        "name": "COSMOS 2251 DEB",
        "group": "cosmos-2251-debris",
        "lat": -73.78549165110451,
        "lon": -26.14471107081943,
        "alt_km": 522.785029171805,
        "timestamp": "2025-12-24T07:45:06.597247+00:00",
        "meta_object_name": "COSMOS 2251 DEB",
        "meta_object_id": "1993-036BWA",
        "meta_epoch": "2025-12-21T22:58:09.286752",
        "meta_mean_motion": 15.11502821,
        "meta_eccentricity": 0.00722284,
        "meta_inclination": 73.9213,
        "meta_ra_of_asc_node": 76.1019,
        "meta_arg_of_pericenter": 345.6422,
        "meta_mean_anomaly": 14.2715,
        "meta_ephemeris_type": 0,
        "meta_classification_type": "U",
        "meta_norad_cat_id": 40797,
        "meta_element_set_no": 999,
        "meta_rev_at_epoch": 64783,
        "meta_bstar": 0.00074206778,
        "meta_mean_motion_dot": 0.00013364,
        "meta_mean_motion_ddot": 0,
        "tle_line1": "1 40797U 93036BWA 25355.95705193  .00013364  00000+0  74207-3 0  9996",
        "tle_line2": "2 40797  73.9213  76.1019 0072228 345.6422  14.2715 15.11502821647839"
      },
      "geometry": {
        "type": "Point",
        "coordinates": [
          -26.14471107081943,
          -73.78549165110451
        ]
      }
    },
    {
      "type": "Feature",
      "properties": {
        "norad_id": 40799,
        "name": "COSMOS 2251 DEB",
        "group": "cosmos-2251-debris",
        "lat": 22.28125521870464,
        "lon": 81.56554632706018,
        "alt_km": 545.8900137745177,
        "timestamp": "2025-12-24T07:45:06.597257+00:00",
        "meta_object_name": "COSMOS 2251 DEB",
        "meta_object_id": "1993-036BWC",
        "meta_epoch": "2025-12-22T21:57:46.533888",
        "meta_mean_motion": 14.96749899,
        "meta_eccentricity": 0.0119411,
        "meta_inclination": 73.9268,
        "meta_ra_of_asc_node": 77.6461,
        "meta_arg_of_pericenter": 317.3719,
        "meta_mean_anomaly": 41.8243,
        "meta_ephemeris_type": 0,
        "meta_classification_type": "U",
        "meta_norad_cat_id": 40799,
        "meta_element_set_no": 999,
        "meta_rev_at_epoch": 50129,
        "meta_bstar": 0.0004483,
        "meta_mean_motion_dot": 5.887e-05,
        "meta_mean_motion_ddot": 0,
        "tle_line1": "1 40799U 93036BWC 25356.91512192  .00005887  00000+0  44830-3 0  9990",
        "tle_line2": "2 40799  73.9268  77.6461 0119411 317.3719  41.8243 14.96749899501290"
      },
      "geometry": {
        "type": "Point",
        "coordinates": [
          81.56554632706018,
          22.28125521870464
        ]
      }
    },
    {
      "type": "Feature",
      "properties": {
        "norad_id": 40802,
        "name": "COSMOS 2251 DEB",
        "group": "cosmos-2251-debris",
        "lat": -4.083683794200872,
        "lon": 129.11560641792616,
        "alt_km": 667.3007256486244,
        "timestamp": "2025-12-24T07:45:06.597266+00:00",
        "meta_object_name": "COSMOS 2251 DEB",
        "meta_object_id": "1993-036BWF",
        "meta_epoch": "2025-12-23T15:31:23.351520",
        "meta_mean_motion": 14.77722867,
        "meta_eccentricity": 0.00628376,
        "meta_inclination": 74.0411,
        "meta_ra_of_asc_node": 131.6125,
        "meta_arg_of_pericenter": 228.2814,
        "meta_mean_anomaly": 131.2977,
        "meta_ephemeris_type": 0,
        "meta_classification_type": "U",
        "meta_norad_cat_id": 40802,
        "meta_element_set_no": 999,
        "meta_rev_at_epoch": 64570,
        "meta_bstar": 0.00086100359,
        "meta_mean_motion_dot": 6.349e-05,
        "meta_mean_motion_ddot": 0,
        "tle_line1": "1 40802U 93036BWF 25357.64679805  .00006349  00000+0  86100-3 0  9991",
        "tle_line2": "2 40802  74.0411 131.6125 0062837 228.2814 131.2977 14.77722867645708"
      },
      "geometry": {
        "type": "Point",
        "coordinates": [
          129.11560641792616,
          -4.083683794200872
        ]
      }
    },
    {
      "type": "Feature",
      "properties": {
        "norad_id": 40803,
        "name": "COSMOS 2251 DEB",
        "group": "cosmos-2251-debris",
        "lat": -19.9123832663354,
        "lon": -143.98315754517563,
        "alt_km": 706.8697691510051,
        "timestamp": "2025-12-24T07:45:06.597276+00:00",
        "meta_object_name": "COSMOS 2251 DEB",
        "meta_object_id": "1993-036BWG",
        "meta_epoch": "2025-12-21T09:22:13.076832",
        "meta_mean_motion": 14.51837554,
        "meta_eccentricity": 0.00343739,
        "meta_inclination": 74.0142,
        "meta_ra_of_asc_node": 35.5847,
        "meta_arg_of_pericenter": 250.91,
        "meta_mean_anomaly": 108.8338,
        "meta_ephemeris_type": 0,
        "meta_classification_type": "U",
        "meta_norad_cat_id": 40803,
        "meta_element_set_no": 999,
        "meta_rev_at_epoch": 58878,
        "meta_bstar": 0.0002337407,
        "meta_mean_motion_dot": 9.19e-06,
        "meta_mean_motion_ddot": 0,
        "tle_line1": "1 40803U 93036BWG 25355.39042913  .00000919  00000+0  23374-3 0  9997",
        "tle_line2": "2 40803  74.0142  35.5847 0034373 250.9100 108.8338 14.51837554588784"
      },
      "geometry": {
        "type": "Point",
        "coordinates": [
          -143.98315754517563,
          -19.9123832663354
        ]
      }
    },
    {
      "type": "Feature",
      "properties": {
        "norad_id": 40808,
        "name": "COSMOS 2251 DEB",
        "group": "cosmos-2251-debris",
        "lat": 48.86310099176978,
        "lon": 142.2324266884202,
        "alt_km": 665.4537331850579,
        "timestamp": "2025-12-24T07:45:06.597286+00:00",
        "meta_object_name": "COSMOS 2251 DEB",
        "meta_object_id": "1993-036BWM",
        "meta_epoch": "2025-12-21T15:48:05.753088",
        "meta_mean_motion": 14.67620191,
        "meta_eccentricity": 0.00084034,
        "meta_inclination": 74.0423,
        "meta_ra_of_asc_node": 128.2531,
        "meta_arg_of_pericenter": 163.7615,
        "meta_mean_anomaly": 215.4081,
        "meta_ephemeris_type": 0,
        "meta_classification_type": "U",
        "meta_norad_cat_id": 40808,
        "meta_element_set_no": 999,
        "meta_rev_at_epoch": 63750,
        "meta_bstar": 0.0013228625,
        "meta_mean_motion_dot": 7.499e-05,
        "meta_mean_motion_ddot": 0,
        "tle_line1": "1 40808U 93036BWM 25355.65839992  .00007499  00000+0  13229-2 0  9999",
        "tle_line2": "2 40808  74.0423 128.2531 0008403 163.7615 215.4081 14.67620191637507"
      },
      "geometry": {
        "type": "Point",
        "coordinates": [
          142.2324266884202,
          48.86310099176978
        ]
      }
    },
    {
      "type": "Feature",
      "properties": {
        "norad_id": 40810,
        "name": "COSMOS 2251 DEB",
        "group": "cosmos-2251-debris",
        "lat": -36.512954069533826,
        "lon": 40.44311804540402,
        "alt_km": 709.1478840440413,
        "timestamp": "2025-12-24T07:45:06.597297+00:00",
        "meta_object_name": "COSMOS 2251 DEB",
        "meta_object_id": "1993-036BWP",
        "meta_epoch": "2025-12-23T03:56:49.945344",
        "meta_mean_motion": 14.58782513,
        "meta_eccentricity": 0.00180471,
        "meta_inclination": 74.0361,
        "meta_ra_of_asc_node": 54.8832,
        "meta_arg_of_pericenter": 205.863,
        "meta_mean_anomaly": 154.1635,
        "meta_ephemeris_type": 0,
        "meta_classification_type": "U",
        "meta_norad_cat_id": 40810,
        "meta_element_set_no": 999,
        "meta_rev_at_epoch": 61835,
        "meta_bstar": 0.0007215593,
        "meta_mean_motion_dot": 3.351e-05,
        "meta_mean_motion_ddot": 0,
        "tle_line1": "1 40810U 93036BWP 25357.16446696  .00003351  00000+0  72156-3 0  9993",
        "tle_line2": "2 40810  74.0361  54.8832 0018047 205.8630 154.1635 14.58782513618352"
      },
      "geometry": {
        "type": "Point",
        "coordinates": [
          40.44311804540402,
          -36.512954069533826
        ]
      }
    }
  ]
}